{
  "type": "FeatureCollection",
  "features": [
    {
      "type": "Feature",
      "properties": {
        "source_pdf": "G:\\Lâm Đồng\\Tài liệu KCN Phú Bình\\BV-QH04.pdf",
        "coordinate_space": "EPSG:4326_approx_anchor",
        "page_width": 2384.0,
        "page_height": 3370.0,
        "anchor_lat": 11.678926,
        "anchor_lng": 108.283167,
        "meters_per_point": 1.0
      },
      "geometry": {
        "type": "Polygon",
        "coordinates": [
          [
            [
              108.27892987798708,
              11.687451680675029
            ],
            [
              108.27356366263706,
              11.681082654444342
            ],
            [
              108.2742424659463,
              11.680741296197846
            ],
            [
              108.275801878954,
              11.678908741400864
            ],
            [
              108.27596699327246,
              11.678675180495366
            ],
            [
              108.27608624250246,
              11.67823500801962
            ],
            [
              108.27636143303323,
              11.678414670254618
            ],
            [
              108.27658158545785,
              11.678414670254618
            ],
            [
              108.27678339184708,
              11.678324839137119
            ],
            [
              108.2768842950417,
              11.678154160013872
            ],
            [
              108.2768842950417,
              11.677830767990875
            ],
            [
              108.27676504581169,
              11.677660088867626
            ],
            [
              108.27659993149324,
              11.677588223973627
            ],
            [
              108.27634308699784,
              11.677588223973627
            ],
            [
              108.2761504536263,
              11.677669071979375
            ],
            [
              108.27600368534323,
              11.676537199898886
            ],
            [
              108.27189417341705,
              11.672530732058428
            ],
            [
              108.27397644843322,
              11.671048518619692
            ],
            [
              108.27406817861015,
              11.671030552396193
            ],
            [
              108.27621466475016,
              11.671623437771686
            ],
            [
              108.27870972556246,
              11.673851249485665
            ],
            [
              108.27944356697786,
              11.67426447262616
            ],
            [
              108.28014071632248,
              11.67433633752016
            ],
            [
              108.28136990069325,
              11.67519871624815
            ],
            [
              108.2829843518071,
              11.675396344706648
            ],
            [
              108.28344300269173,
              11.675378378483149
            ],
            [
              108.28364480908095,
              11.67528854736565
            ],
            [
              108.28403924884172,
              11.674920239783903
            ],
            [
              108.28481895534557,
              11.673725485921166
            ],
            [
              108.28500241569942,
              11.673869215709164
            ],
            [
              108.28531429830096,
              11.673887181932663
            ],
            [
              108.2854977586548,
              11.673797350815164
            ],
            [
              108.28558031581403,
              11.673680570362416
            ],
            [
              108.28556196977866,
              11.67323141477492
            ],
            [
              108.28536933640711,
              11.673078701875172
            ],
            [
              108.28508497285866,
              11.673051752539923
            ],
            [
              108.28556196977866,
              11.671865981788933
            ],
            [
              108.28565369995557,
              11.669745967415956
            ],
            [
              108.28689205734405,
              11.668569179776718
            ],
            [
              108.29022186276636,
              11.672530732058428
            ],
            [
              108.28997419128866,
              11.672467850276178
            ],
            [
              108.28996501827098,
              11.672369036046929
            ],
            [
              108.28984576904098,
              11.67227022181768
            ],
            [
              108.28971734679328,
              11.67227022181768
            ],
            [
              108.2897081737756,
              11.672171407588431
            ],
            [
              108.28960727058097,
              11.672090559582681
            ],
            [
              108.28944215626251,
              11.672090559582681
            ],
            [
              108.28939629117406,
              11.67227920492943
            ],
            [
              108.28968065472252,
              11.67234208671168
            ],
            [
              108.28977238489944,
              11.672503782723178
            ],
            [
              108.2899374992179,
              11.672521748946677
            ],
            [
              108.28999253732405,
              11.672665478734675
            ],
            [
              108.2901759976779,
              11.672701411181675
            ],
            [
              108.29024938181944,
              11.672863107193175
            ],
            [
              108.29045118820866,
              11.672899039640173
            ],
            [
              108.29046953424405,
              11.673024803204672
            ],
            [
              108.29057961045636,
              11.673114634322172
            ],
            [
              108.29069885968636,
              11.673123617433921
            ],
            [
              108.29069885968636,
              11.673195482327921
            ],
            [
              108.29102908832328,
              11.673482941903918
            ],
            [
              108.29275361564945,
              11.675531091382897
            ],
            [
              108.2928086537556,
              11.675746686064896
            ],
            [
              108.29299211410945,
              11.675818550958894
            ],
            [
              108.29396445398484,
              11.676968389262884
            ],
            [
              108.28974486584636,
              11.679609424117357
            ],
            [
              108.28976321188175,
              11.679842985022853
            ],
            [
              108.29189135198637,
              11.684029115098312
            ],
            [
              108.29046953424405,
              11.684325557786059
            ],
            [
              108.2893320800502,
              11.684774713373555
            ],
            [
              108.28769928290097,
              11.685978450348044
            ],
            [
              108.28720393994558,
              11.68624794370054
            ],
            [
              108.28855237354635,
              11.6851250547318
            ],
            [
              108.28853402751098,
              11.684945392496804
            ],
            [
              108.28785522420173,
              11.68413691243931
            ],
            [
              108.28773597497174,
              11.684038098210062
            ],
            [
              108.28758920668866,
              11.684038098210062
            ],
            [
              108.28583716030943,
              11.685466412978299
            ],
            [
              108.28583716030943,
              11.685628108989796
            ],
            [
              108.28624994610557,
              11.686122180136042
            ],
            [
              108.28717642089251,
              11.68625692681229
            ],
            [
              108.28518587605326,
              11.68718218732253
            ],
            [
              108.28515835700018,
              11.686867778411283
            ],
            [
              108.28506662682327,
              11.686724048623285
            ],
            [
              108.28536016338941,
              11.686706082399786
            ],
            [
              108.28536016338941,
              11.68636472415329
            ],
            [
              108.28500241569942,
              11.686355741041538
            ],
            [
              108.28498406966403,
              11.686661166841036
            ],
            [
              108.28476391723942,
              11.686625234394036
            ],
            [
              108.28474557120403,
              11.686499470829538
            ],
            [
              108.28458045688556,
              11.686499470829538
            ],
            [
              108.28457128386788,
              11.686634217505786
            ],
            [
              108.28448872670864,
              11.686661166841036
            ],
            [
              108.28433278540788,
              11.686867778411283
            ],
            [
              108.28433278540788,
              11.68719117043428
            ],
            [
              108.28450707274403,
              11.68739778200453
            ],
            [
              108.28313112009018,
              11.686984558864033
            ],
            [
              108.2831127740548,
              11.686894727746534
            ],
            [
              108.28292931370095,
              11.686930660193534
            ],
            [
              108.28276419938248,
              11.686876761523035
            ],
            [
              108.2819202817548,
              11.686840829076035
            ],
            [
              108.28039756081786,
              11.68711032242853
            ],
            [
              108.27892987798708,
              11.687451680675029
            ]
          ]
        ]
      }
    }
  ]
}