{
  "type": "FeatureCollection",
  "features": [
    {
      "type": "Feature",
      "properties": {
        "source_pdf": "G:\\Lâm Đồng\\Tài liệu KCN Phú Bình\\BV-QH04.pdf",
        "coordinate_space": "pdf_page_points",
        "page_width": 2384.0,
        "page_height": 3370.0,
        "anchor_lat": null,
        "anchor_lng": null,
        "meters_per_point": null
      },
      "geometry": {
        "type": "Polygon",
        "coordinates": [
          [
            [
              950.0,
              133.0
            ],
            [
              365.0,
              842.0
            ],
            [
              439.0,
              880.0
            ],
            [
              609.0,
              1084.0
            ],
            [
              627.0,
              1110.0
            ],
            [
              640.0,
              1159.0
            ],
            [
              670.0,
              1139.0
            ],
            [
              694.0,
              1139.0
            ],
            [
              716.0,
              1149.0
            ],
            [
              727.0,
              1168.0
            ],
            [
              727.0,
              1204.0
            ],
            [
              714.0,
              1223.0
            ],
            [
              696.0,
              1231.0
            ],
            [
              668.0,
              1231.0
            ],
            [
              647.0,
              1222.0
            ],
            [
              631.0,
              1348.0
            ],
            [
              183.0,
              1794.0
            ],
            [
              410.0,
              1959.0
            ],
            [
              420.0,
              1961.0
            ],
            [
              654.0,
              1895.0
            ],
            [
              926.0,
              1647.0
            ],
            [
              1006.0,
              1601.0
            ],
            [
              1082.0,
              1593.0
            ],
            [
              1216.0,
              1497.0
            ],
            [
              1392.0,
              1475.0
            ],
            [
              1442.0,
              1477.0
            ],
            [
              1464.0,
              1487.0
            ],
            [
              1507.0,
              1528.0
            ],
            [
              1592.0,
              1661.0
            ],
            [
              1612.0,
              1645.0
            ],
            [
              1646.0,
              1643.0
            ],
            [
              1666.0,
              1653.0
            ],
            [
              1675.0,
              1666.0
            ],
            [
              1673.0,
              1716.0
            ],
            [
              1652.0,
              1733.0
            ],
            [
              1621.0,
              1736.0
            ],
            [
              1673.0,
              1868.0
            ],
            [
              1683.0,
              2104.0
            ],
            [
              1818.0,
              2235.0
            ],
            [
              2181.0,
              1794.0
            ],
            [
              2154.0,
              1801.0
            ],
            [
              2153.0,
              1812.0
            ],
            [
              2140.0,
              1823.0
            ],
            [
              2126.0,
              1823.0
            ],
            [
              2125.0,
              1834.0
            ],
            [
              2114.0,
              1843.0
            ],
            [
              2096.0,
              1843.0
            ],
            [
              2091.0,
              1822.0
            ],
            [
              2122.0,
              1815.0
            ],
            [
              2132.0,
              1797.0
            ],
            [
              2150.0,
              1795.0
            ],
            [
              2156.0,
              1779.0
            ],
            [
              2176.0,
              1775.0
            ],
            [
              2184.0,
              1757.0
            ],
            [
              2206.0,
              1753.0
            ],
            [
              2208.0,
              1739.0
            ],
            [
              2220.0,
              1729.0
            ],
            [
              2233.0,
              1728.0
            ],
            [
              2233.0,
              1720.0
            ],
            [
              2269.0,
              1688.0
            ],
            [
              2457.0,
              1460.0
            ],
            [
              2463.0,
              1436.0
            ],
            [
              2483.0,
              1428.0
            ],
            [
              2589.0,
              1300.0
            ],
            [
              2129.0,
              1006.0
            ],
            [
              2131.0,
              980.0
            ],
            [
              2363.0,
              514.0
            ],
            [
              2208.0,
              481.0
            ],
            [
              2084.0,
              431.0
            ],
            [
              1906.0,
              297.0
            ],
            [
              1852.0,
              267.0
            ],
            [
              1999.0,
              392.0
            ],
            [
              1997.0,
              412.0
            ],
            [
              1923.0,
              502.0
            ],
            [
              1910.0,
              513.0
            ],
            [
              1894.0,
              513.0
            ],
            [
              1703.0,
              354.0
            ],
            [
              1703.0,
              336.0
            ],
            [
              1748.0,
              281.0
            ],
            [
              1849.0,
              266.0
            ],
            [
              1632.0,
              163.0
            ],
            [
              1629.0,
              198.0
            ],
            [
              1619.0,
              214.0
            ],
            [
              1651.0,
              216.0
            ],
            [
              1651.0,
              254.0
            ],
            [
              1612.0,
              255.0
            ],
            [
              1610.0,
              221.0
            ],
            [
              1586.0,
              225.0
            ],
            [
              1584.0,
              239.0
            ],
            [
              1566.0,
              239.0
            ],
            [
              1565.0,
              224.0
            ],
            [
              1556.0,
              221.0
            ],
            [
              1539.0,
              198.0
            ],
            [
              1539.0,
              162.0
            ],
            [
              1558.0,
              139.0
            ],
            [
              1408.0,
              185.0
            ],
            [
              1406.0,
              195.0
            ],
            [
              1386.0,
              191.0
            ],
            [
              1368.0,
              197.0
            ],
            [
              1276.0,
              201.0
            ],
            [
              1110.0,
              171.0
            ],
            [
              950.0,
              133.0
            ]
          ]
        ]
      }
    }
  ]
}